{
  "type": "FeatureCollection",
  "features": [
    {
      "type": "Feature",
      "properties": {
        "norad_id": 31177,
        "name": "FENGYUN 1C DEB",
        "group": "fengyun-1c-debris",
        "lat": 32.26521570368752,
        "lon": -101.95177166771816,
        "alt_km": 1013.9869846079473,
        "timestamp": "2025-12-16T13:52:37.804435+00:00",
        "meta_object_name": "FENGYUN 1C DEB",
        "meta_object_id": "1999-025BJF",
        "meta_epoch": "2025-12-08T17:24:07.966080",
        "meta_mean_motion": 13.622528,
        "meta_eccentricity": 0.0310599,
        "meta_inclination": 98.7576,
        "meta_ra_of_asc_node": 256.5653,
        "meta_arg_of_pericenter": 324.298,
        "meta_mean_anomaly": 91.0785,
        "meta_ephemeris_type": 0,
        "meta_classification_type": "U",
        "meta_norad_cat_id": 31177,
        "meta_element_set_no": 999,
        "meta_rev_at_epoch": 66157,
        "meta_bstar": 0.0076571,
        "meta_mean_motion_dot": 8.152e-05,
        "meta_mean_motion_ddot": 0,
        "tle_line1": "1 31177U 99025BJF 25342.72509220  .00008152  00000+0  76571-2 0  9990",
        "tle_line2": "2 31177  98.7576 256.5653 0310599 324.2980  91.0785 13.62252800661574"
      },
      "geometry": {
        "type": "Point",
        "coordinates": [
          -101.95177166771816,
          32.26521570368752
        ]
      }
    },
    {
      "type": "Feature",
      "properties": {
        "norad_id": 31178,
        "name": "FENGYUN 1C DEB",
        "group": "fengyun-1c-debris",
        "lat": -28.593723673822684,
        "lon": 167.8716429432512,
        "alt_km": 831.6222314574497,
        "timestamp": "2025-12-16T13:52:37.804445+00:00",
        "meta_object_name": "FENGYUN 1C DEB",
        "meta_object_id": "1999-025BJG",
        "meta_epoch": "2025-12-15T06:29:40.237440",
        "meta_mean_motion": 14.22236313,
        "meta_eccentricity": 0.01259385,
        "meta_inclination": 99.5133,
        "meta_ra_of_asc_node": 351.7059,
        "meta_arg_of_pericenter": 308.4435,
        "meta_mean_anomaly": 50.549,
        "meta_ephemeris_type": 0,
        "meta_classification_type": "U",
        "meta_norad_cat_id": 31178,
        "meta_element_set_no": 999,
        "meta_rev_at_epoch": 95851,
        "meta_bstar": 0.001505676,
        "meta_mean_motion_dot": 3.574e-05,
        "meta_mean_motion_ddot": 0,
        "tle_line1": "1 31178U 99025BJG 25349.27060460  .00003574  00000+0  15057-2 0  9991",
        "tle_line2": "2 31178  99.5133 351.7059 0125938 308.4435  50.5490 14.22236313958515"
      },
      "geometry": {
        "type": "Point",
        "coordinates": [
          167.8716429432512,
          -28.593723673822684
        ]
      }
    },
    {
      "type": "Feature",
      "properties": {
        "norad_id": 31179,
        "name": "FENGYUN 1C DEB",
        "group": "fengyun-1c-debris",
        "lat": 2.039942100566695,
        "lon": 10.078042681781008,
        "alt_km": 770.4334149897786,
        "timestamp": "2025-12-16T13:52:37.804455+00:00",
        "meta_object_name": "FENGYUN 1C DEB",
        "meta_object_id": "1999-025BJH",
        "meta_epoch": "2025-12-15T18:53:29.025600",
        "meta_mean_motion": 13.91934403,
        "meta_eccentricity": 0.02153501,
        "meta_inclination": 99.0197,
        "meta_ra_of_asc_node": 9.6322,
        "meta_arg_of_pericenter": 352.4784,
        "meta_mean_anomaly": 7.3163,
        "meta_ephemeris_type": 0,
        "meta_classification_type": "U",
        "meta_norad_cat_id": 31179,
        "meta_element_set_no": 999,
        "meta_rev_at_epoch": 61983,
        "meta_bstar": 0.00086484181,
        "meta_mean_motion_dot": 1.289e-05,
        "meta_mean_motion_ddot": 0,
        "tle_line1": "1 31179U 99025BJH 25349.78714150  .00001289  00000+0  86484-3 0  9994",
        "tle_line2": "2 31179  99.0197   9.6322 0215350 352.4784   7.3163 13.91934403619833"
      },
      "geometry": {
        "type": "Point",
        "coordinates": [
          10.078042681781008,
          2.039942100566695
        ]
      }
    },
    {
      "type": "Feature",
      "properties": {
        "norad_id": 31180,
        "name": "FENGYUN 1C DEB",
        "group": "fengyun-1c-debris",
        "lat": 2.335691594770973,
        "lon": -57.64540445053275,
        "alt_km": 1213.0364761552728,
        "timestamp": "2025-12-16T13:52:37.804464+00:00",
        "meta_object_name": "FENGYUN 1C DEB",
        "meta_object_id": "1999-025BJJ",
        "meta_epoch": "2025-12-15T02:50:03.152256",
        "meta_mean_motion": 13.70344689,
        "meta_eccentricity": 0.04982299,
        "meta_inclination": 99.2175,
        "meta_ra_of_asc_node": 120.5693,
        "meta_arg_of_pericenter": 53.7959,
        "meta_mean_anomaly": 119.782,
        "meta_ephemeris_type": 0,
        "meta_classification_type": "U",
        "meta_norad_cat_id": 31180,
        "meta_element_set_no": 999,
        "meta_rev_at_epoch": 64099,
        "meta_bstar": 0.00020130055,
        "meta_mean_motion_dot": 3.86e-06,
        "meta_mean_motion_ddot": 0,
        "tle_line1": "1 31180U 99025BJJ 25349.11809204  .00000386  00000+0  20130-3 0  9991",
        "tle_line2": "2 31180  99.2175 120.5693 0498229  53.7959 119.7820 13.70344689640997"
      },
      "geometry": {
        "type": "Point",
        "coordinates": [
          -57.64540445053275,
          2.335691594770973
        ]
      }
    },
    {
      "type": "Feature",
      "properties": {
        "norad_id": 31181,
        "name": "FENGYUN 1C DEB",
        "group": "fengyun-1c-debris",
        "lat": -80.43240813846874,
        "lon": 89.4856815549451,
        "alt_km": 890.2484420049122,
        "timestamp": "2025-12-16T13:52:37.804474+00:00",
        "meta_object_name": "FENGYUN 1C DEB",
        "meta_object_id": "1999-025BJK",
        "meta_epoch": "2025-12-15T01:00:25.558272",
        "meta_mean_motion": 14.11894251,
        "meta_eccentricity": 0.0048014,
        "meta_inclination": 98.7775,
        "meta_ra_of_asc_node": 21.5436,
        "meta_arg_of_pericenter": 68.216,
        "meta_mean_anomaly": 321.7259,
        "meta_ephemeris_type": 0,
        "meta_classification_type": "U",
        "meta_norad_cat_id": 31181,
        "meta_element_set_no": 999,
        "meta_rev_at_epoch": 95800,
        "meta_bstar": 0.0008914613,
        "meta_mean_motion_dot": 1.603e-05,
        "meta_mean_motion_ddot": 0,
        "tle_line1": "1 31181U 99025BJK 25349.04196248  .00001603  00000+0  89146-3 0  9996",
        "tle_line2": "2 31181  98.7775  21.5436 0048014  68.2160 321.7259 14.11894251958007"
      },
      "geometry": {
        "type": "Point",
        "coordinates": [
          89.4856815549451,
          -80.43240813846874
        ]
      }
    },
    {
      "type": "Feature",
      "properties": {
        "norad_id": 31182,
        "name": "FENGYUN 1C DEB",
        "group": "fengyun-1c-debris",
        "lat": 74.17041557138863,
        "lon": -168.04720075511347,
        "alt_km": 821.2497669729291,
        "timestamp": "2025-12-16T13:52:37.804487+00:00",
        "meta_object_name": "FENGYUN 1C DEB",
        "meta_object_id": "1999-025BJL",
        "meta_epoch": "2025-12-09T05:08:12.053760",
        "meta_mean_motion": 14.14545929,
        "meta_eccentricity": 0.0023077,
        "meta_inclination": 98.6814,
        "meta_ra_of_asc_node": 332.187,
        "meta_arg_of_pericenter": 146.444,
        "meta_mean_anomaly": 276.6011,
        "meta_ephemeris_type": 0,
        "meta_classification_type": "U",
        "meta_norad_cat_id": 31182,
        "meta_element_set_no": 999,
        "meta_rev_at_epoch": 96031,
        "meta_bstar": 0.00059768,
        "meta_mean_motion_dot": 1.107e-05,
        "meta_mean_motion_ddot": 0,
        "tle_line1": "1 31182U 99025BJL 25343.21402840  .00001107  00000+0  59768-3 0  9994",
        "tle_line2": "2 31182  98.6814 332.1870 0023077 146.4440 276.6011 14.14545929960315"
      },
      "geometry": {
        "type": "Point",
        "coordinates": [
          -168.04720075511347,
          74.17041557138863
        ]
      }
    },
    {
      "type": "Feature",
      "properties": {
        "norad_id": 31183,
        "name": "FENGYUN 1C DEB",
        "group": "fengyun-1c-debris",
        "lat": 28.47651980694783,
        "lon": 159.5480913369124,
        "alt_km": 703.2528945913709,
        "timestamp": "2025-12-16T13:52:37.804499+00:00",
        "meta_object_name": "FENGYUN 1C DEB",
        "meta_object_id": "1999-025BJM",
        "meta_epoch": "2025-12-15T22:32:28.480128",
        "meta_mean_motion": 14.50464918,
        "meta_eccentricity": 0.00476541,
        "meta_inclination": 99.0357,
        "meta_ra_of_asc_node": 333.9112,
        "meta_arg_of_pericenter": 97.9776,
        "meta_mean_anomaly": 317.8862,
        "meta_ephemeris_type": 0,
        "meta_classification_type": "U",
        "meta_norad_cat_id": 31183,
        "meta_element_set_no": 999,
        "meta_rev_at_epoch": 97529,
        "meta_bstar": 0.00081847643,
        "meta_mean_motion_dot": 3.196e-05,
        "meta_mean_motion_ddot": 0,
        "tle_line1": "1 31183U 99025BJM 25349.93921852  .00003196  00000+0  81848-3 0  9993",
        "tle_line2": "2 31183  99.0357 333.9112 0047654  97.9776 317.8862 14.50464918975293"
      },
      "geometry": {
        "type": "Point",
        "coordinates": [
          159.5480913369124,
          28.47651980694783
        ]
      }
    }
  ]
}